STARLINK-37232          
1 69515U 26133H   26178.50002315  .00043747  00000+0  22337-3 0  9995
2 69515  53.1591 270.2342 0000972  95.2948 148.5520 15.80940288  3527
STARLINK-37323          
1 69516U 26133J   26178.50002315 -.00049616  00000+0 -24889-3 0  9993
2 69516  53.1593 270.2271 0001326  83.4150 163.6130 15.80905820  3527
STARLINK-37357          
1 69517U 26133K   26178.50002315 -.01995287  00000+0 -11443-1 0  9999
2 69517  53.1592 270.2001 0000857  64.1704 195.9597 15.81291291  3523
STARLINK-37408          
1 69518U 26133L   26178.50002315  .00035022  00000+0  18025-3 0  9994
2 69518  53.1593 270.1858 0001202  60.7447 206.3834 15.80874292  3523
STARLINK-37570          
1 69519U 26133M   26178.50002315  .00001295  00000+0  10094-4 0  9999
2 69519  53.1594 270.1244 0000897  82.5992 213.6903 15.80879121  3524
STARLINK-37510          
1 69520U 26133N   26178.50002315 -.00011162  00000+0 -53047-4 0  9992
2 69520  53.1592 270.1592 0001036  98.1616 181.6328 15.80886992  3521
STARLINK-37586          
1 69521U 26133P   26178.50002315 -.00318192  00000+0 -16523-2 0  9992
2 69521  53.1589 270.0462 0001180  92.9895 241.0421 15.81083546  3524
STARLINK-37379          
1 69522U 26133Q   26178.50002315 -.00008336  00000+0 -38542-4 0  9996
2 69522  53.1595 270.0560 0000843  70.1158 259.1609 15.80978577  3575
STARLINK-37429          
1 69523U 26133R   26178.50002315 -.01976831  00000+0 -11313-1 0  9996
2 69523  53.1593 270.0358 0000982  65.3014 273.4585 15.81304790  3573
STARLINK-37352          
1 69524U 26133S   26178.50002315  .00265812  00000+0  13125-2 0  9998
2 69524  53.1593 270.0040 0000969  92.3110 261.8648 15.80818121  3572
STARLINK-37490          
1 69525U 26133T   26178.50002315  .00111607  00000+0  56316-3 0  9991
2 69525  53.1584 269.9074 0000859  97.5923 303.0948 15.80817089  3578
STARLINK-37438          
1 69526U 26133U   26178.50002315  .00328418  00000+0  16087-2 0  9992
2 69526  53.1592 269.9780 0001250  97.3216 269.7076 15.80822520  3577
STARLINK-37484          
1 69527U 26133V   26178.50002315  .00119614  00000+0  60270-3 0  9993
2 69527  53.1584 269.8918 0000989  66.5201 341.7352 15.80818721  3577
STARLINK-37523          
1 69528U 26133W   26178.50002315  .00206291  00000+0  10280-2 0  9997
2 69528  53.1588 269.8905 0001183  85.7383 323.1712 15.80787492  3573
STARLINK-37369          
1 69529U 26133X   26178.50002315 -.00081477  00000+0 -41205-3 0  9999
2 69529  53.1583 269.8659 0000384  25.1226  35.3215 15.80932293  3572
STARLINK-37670          
1 69530U 26133Y   26178.50002315 -.00014236  00000+0 -68668-4 0  9993
2 69530  53.1581 269.8222 0001582  76.8544   4.8509 15.80880141  3576
STARLINK-37897          
1 69531U 26133Z   26178.50002315  .00039116  00000+0  20106-3 0  9990
2 69531  53.1579 269.7876 0001320  52.7984  44.9323 15.80847233  3528
STARLINK-37933          
1 69532U 26133AA  26178.50002315 -.00086769  00000+0 -43916-3 0  9993
2 69532  53.1580 269.7401 0001314  44.1625  76.3489 15.80937369  3527
STARLINK-37890          
1 69533U 26133AB  26178.50002315 -.01994091  00000+0 -10734-1 0  9991
2 69533  53.1572 269.6899 0001339  66.0902  78.5729 15.82624464  3529
STARLINK-37407          
1 69534U 26133AC  26178.50002315 -.02106951  00000+0 -11308-1 0  9991
2 69534  53.1566 269.6473 0001339  79.1609  85.5546 15.82878197  3574
STARLINK-37888          
1 69535U 26133AD  26178.50002315 -.02028228  00000+0 -95308-2 0  9995
2 69535  53.1556 269.5880 0001141  74.7953 118.6102 15.85493852  3524
STARLINK-37889          
1 69536U 26133AE  26178.50002315  .00017754  00000+0  93394-4 0  9999
2 69536  53.1594 270.0934 0001187  75.0320 237.5171 15.80852332  3520
2026-134A               
1 69538U 26134A   26178.46495153  .00005794  00000+0  36665-3 0  9991
2 69538  97.7018 248.6070 0014561 232.7921 127.1979 15.09303922  1860
2026-134B               
1 69539U 26134B   26178.46367616  .00005698  00000+0  35913-3 0  9992
2 69539  97.6991 248.6051 0014673 235.4268 124.5576 15.09460447  1856
2026-134C               
1 69540U 26134C   26178.46342265  .00005745  00000+0  36181-3 0  9998
2 69540  97.6999 248.6063 0014091 236.7559 123.2319 15.09492201  1854
2026-134D               
1 69541U 26134D   26178.46295520  .00005692  00000+0  35782-3 0  9997
2 69541  97.7037 248.6124 0015159 236.4879 123.4902 15.09549290  1856
2026-134E               
1 69542U 26134E   26178.46277587  .00005736  00000+0  36035-3 0  9992
2 69542  97.7057 248.6154 0014892 237.2403 122.7391 15.09571429  1850
2026-134F               
1 69543U 26134F   26178.46240309  .00005752  00000+0  36101-3 0  9997
2 69543  97.7010 248.6092 0014166 239.0227 120.9610 15.09617510  1855
2026-134G               
1 69544U 26134G   26178.26288208  .00005849  00000+0  36611-3 0  9999
2 69544  97.7054 248.4166 0014636 240.5382 119.4387 15.09699150  1826
