OBJECT_NAME,OBJECT_ID,EPOCH,MEAN_MOTION,ECCENTRICITY,INCLINATION,RA_OF_ASC_NODE,ARG_OF_PERICENTER,MEAN_ANOMALY,EPHEMERIS_TYPE,CLASSIFICATION_TYPE,NORAD_CAT_ID,ELEMENT_SET_NO,REV_AT_EPOCH,BSTAR,MEAN_MOTION_DOT,MEAN_MOTION_DDOT
STARLINK-37232,2026-133H,2026-06-27T12:00:02.000160,15.80940288,.0000972,53.1591,270.2342,95.2948,148.5520,0,U,69515,999,352,.22337E-3,.43747E-3,0
STARLINK-37323,2026-133J,2026-06-27T12:00:02.000160,15.80905820,.0001326,53.1593,270.2271,83.4150,163.6130,0,U,69516,999,352,-.24889E-3,-.49616E-3,0
STARLINK-37357,2026-133K,2026-06-27T12:00:02.000160,15.81291291,.0000857,53.1592,270.2001,64.1704,195.9597,0,U,69517,999,352,-.11443E-1,-.1995287E-1,0
STARLINK-37408,2026-133L,2026-06-27T12:00:02.000160,15.80874292,.0001202,53.1593,270.1858,60.7447,206.3834,0,U,69518,999,352,.18025E-3,.35022E-3,0
STARLINK-37570,2026-133M,2026-06-27T12:00:02.000160,15.80879121,.0000897,53.1594,270.1244,82.5992,213.6903,0,U,69519,999,352,.10094E-4,.1295E-4,0
STARLINK-37510,2026-133N,2026-06-27T12:00:02.000160,15.80886992,.0001036,53.1592,270.1592,98.1616,181.6328,0,U,69520,999,352,-.53047E-4,-.11162E-3,0
STARLINK-37586,2026-133P,2026-06-27T12:00:02.000160,15.81083546,.000118,53.1589,270.0462,92.9895,241.0421,0,U,69521,999,352,-.16523E-2,-.318192E-2,0
STARLINK-37379,2026-133Q,2026-06-27T12:00:02.000160,15.80978577,.0000843,53.1595,270.0560,70.1158,259.1609,0,U,69522,999,357,-.38542E-4,-.8336E-4,0
STARLINK-37429,2026-133R,2026-06-27T12:00:02.000160,15.81304790,.0000982,53.1593,270.0358,65.3014,273.4585,0,U,69523,999,357,-.11313E-1,-.1976831E-1,0
STARLINK-37352,2026-133S,2026-06-27T12:00:02.000160,15.80818121,.0000969,53.1593,270.0040,92.3110,261.8648,0,U,69524,999,357,.13125E-2,.265812E-2,0
STARLINK-37490,2026-133T,2026-06-27T12:00:02.000160,15.80817089,.0000859,53.1584,269.9074,97.5923,303.0948,0,U,69525,999,357,.56316E-3,.111607E-2,0
STARLINK-37438,2026-133U,2026-06-27T12:00:02.000160,15.80822520,.000125,53.1592,269.9780,97.3216,269.7076,0,U,69526,999,357,.16087E-2,.328418E-2,0
STARLINK-37484,2026-133V,2026-06-27T12:00:02.000160,15.80818721,.0000989,53.1584,269.8918,66.5201,341.7352,0,U,69527,999,357,.6027E-3,.119614E-2,0
STARLINK-37523,2026-133W,2026-06-27T12:00:02.000160,15.80787492,.0001183,53.1588,269.8905,85.7383,323.1712,0,U,69528,999,357,.1028E-2,.206291E-2,0
STARLINK-37369,2026-133X,2026-06-27T12:00:02.000160,15.80932293,.0000384,53.1583,269.8659,25.1226,35.3215,0,U,69529,999,357,-.41205E-3,-.81477E-3,0
STARLINK-37670,2026-133Y,2026-06-27T12:00:02.000160,15.80880141,.0001582,53.1581,269.8222,76.8544,4.8509,0,U,69530,999,357,-.68668E-4,-.14236E-3,0
STARLINK-37897,2026-133Z,2026-06-27T12:00:02.000160,15.80847233,.000132,53.1579,269.7876,52.7984,44.9323,0,U,69531,999,352,.20106E-3,.39116E-3,0
STARLINK-37933,2026-133AA,2026-06-27T12:00:02.000160,15.80937369,.0001314,53.1580,269.7401,44.1625,76.3489,0,U,69532,999,352,-.43916E-3,-.86769E-3,0
STARLINK-37890,2026-133AB,2026-06-27T12:00:02.000160,15.82624464,.0001339,53.1572,269.6899,66.0902,78.5729,0,U,69533,999,352,-.10734E-1,-.1994091E-1,0
STARLINK-37407,2026-133AC,2026-06-27T12:00:02.000160,15.82878197,.0001339,53.1566,269.6473,79.1609,85.5546,0,U,69534,999,357,-.11308E-1,-.2106951E-1,0
STARLINK-37888,2026-133AD,2026-06-27T12:00:02.000160,15.85493852,.0001141,53.1556,269.5880,74.7953,118.6102,0,U,69535,999,352,-.95308E-2,-.2028228E-1,0
STARLINK-37889,2026-133AE,2026-06-27T12:00:02.000160,15.80852332,.0001187,53.1594,270.0934,75.0320,237.5171,0,U,69536,999,352,.93394E-4,.17754E-3,0
2026-134A,2026-134A,2026-06-27T11:09:31.812192,15.09303922,.0014561,97.7018,248.6070,232.7921,127.1979,0,U,69538,999,186,.36665E-3,.5794E-4,0
2026-134B,2026-134B,2026-06-27T11:07:41.620224,15.09460447,.0014673,97.6991,248.6051,235.4268,124.5576,0,U,69539,999,185,.35913E-3,.5698E-4,0
2026-134C,2026-134C,2026-06-27T11:07:19.716960,15.09492201,.0014091,97.6999,248.6063,236.7559,123.2319,0,U,69540,999,185,.36181E-3,.5745E-4,0
2026-134D,2026-134D,2026-06-27T11:06:39.329280,15.09549290,.0015159,97.7037,248.6124,236.4879,123.4902,0,U,69541,999,185,.35782E-3,.5692E-4,0
2026-134E,2026-134E,2026-06-27T11:06:23.835168,15.09571429,.0014892,97.7057,248.6154,237.2403,122.7391,0,U,69542,999,185,.36035E-3,.5736E-4,0
2026-134F,2026-134F,2026-06-27T11:05:51.626976,15.09617510,.0014166,97.7010,248.6092,239.0227,120.9610,0,U,69543,999,185,.36101E-3,.5752E-4,0
2026-134G,2026-134G,2026-06-27T06:18:33.011712,15.09699150,.0014636,97.7054,248.4166,240.5382,119.4387,0,U,69544,999,182,.36611E-3,.5849E-4,0
